0 FENGYUN 1C DEB
1 29892U 99025GN  13282.03333713  .00001722  00000-0  93590-3 0  1616
2 29892 099.2822 294.5525 0287459 039.7232 017.1762 13.94669456341855
0 FENGYUN 1C DEB
1 29892U 99025GN  13283.03825475  .00001616  00000-0  87993-3 0  1621
2 29892 099.2821 295.5645 0287401 036.9835 022.6806 13.94672968341990
0 FENGYUN 1C DEB
1 29892U 99025GN  13284.04329431  .00001737  00000-0  94381-3 0  1638
2 29892 099.2819 296.5767 0287343 034.2491 028.8048 13.94676207342130
0 FENGYUN 1C DEB
1 29892U 99025GN  13285.49453574  .00001332  00000-0  72970-3 0  1646
2 29892 099.2817 298.0382 0287224 030.2882 115.2630 13.94681551342334
0 FENGYUN 1C DEB
1 29892U 99025GN  13286.63599212  .00001592  00000-0  86779-3 0  1654
2 29892 099.2815 299.1878 0287147 027.1688 086.3663 13.94684030342493
0 FENGYUN 1C DEB
1 29892U 99025GN  13287.98747404  .00002233  00000-0  12075-2 0  1662
2 29892 099.2814 300.5487 0287032 023.4742 031.9961 13.94691276342686
0 FENGYUN 1C DEB
1 29892U 99025GN  13288.99227456  .00001839  00000-0  99877-3 0  1672
2 29892 099.2814 301.5607 0286996 020.7160 037.0131 13.94695998342820
0 FENGYUN 1C DEB
1 29892U 99025GN  13289.99641058  .00001760  00000-0  95689-3 0  1682
2 29892 099.2814 302.5717 0286953 017.9743 038.6969 13.94698907342965
0 FENGYUN 1C DEB
1 29892U 99025GN  13291.52261502  .00001740  00000-0  94654-3 0  1696
2 29892 099.2817 304.1083 0286861 013.8054 141.6693 13.94704720343174
0 FENGYUN 1C DEB
1 29892U 99025GN  13293.01020793  .00002249  00000-0  12159-2 0  1703
2 29892 099.2812 305.6060 0286892 009.7660 050.7882 13.94707946343387
0 FENGYUN 1C DEB
1 29892U 99025GN  13294.08121889  .00002363  00000-0  12766-2 0  1711
2 29892 099.2813 306.6843 0286858 006.8482 028.2960 13.94712368343538
0 FENGYUN 1C DEB
1 29892U 99025GN  13295.53860021  .00002473  00000-0  13349-2 0  1721
2 29892 099.2817 308.1516 0286807 002.8808 145.7781 13.94719048343738
